GEO-KOMPSAT-2B          
1 45246U 20013B   22227.42270209 -.00000360  00000+0  00000+0 0  9996
2 45246   0.0383 271.0407 0001252 312.3975  20.7722  1.00271708  9227
BEIDOU-3 G2             
1 45344U 20017A   22230.87212546 -.00000146  00000+0  00000+0 0  9994
2 45344   2.0308 355.1759 0004721 140.0384 225.9841  1.00272137  9243
AEHF-6 (USA 298)        
1 45465U 20022B   22230.95550385 -.00000299  00000+0  00000+0 0  9998
2 45465   5.8011 302.3486 0044115 359.2304 147.4484  1.00271896  8967
BEIDOU-3 G3             
1 45807U 20040A   22230.87822949 -.00000359  00000+0  00000+0 0  9994
2 45807   1.3031 305.0522 0007355 329.1248 119.7348  1.00269146  8055
APSTAR 6D               
1 45863U 20045A   22230.89553005 -.00000324  00000+0  00000+0 0  9999
2 45863   0.0164 111.8411 0002397  21.7257 290.0365  1.00274431  7836
KOREASAT 116            
1 45920U 20048A   22230.87936310 -.00000369  00000+0  00000+0 0  9997
2 45920   0.0165  97.6664 0001042  83.2692 219.0318  1.00272850  7612
EXPRESS 103             
1 45985U 20053A   22230.30148243 -.00000289  00000+0  00000+0 0  9993
2 45985   0.0443 279.4258 0000932 347.2385 265.0017  1.00271702  7623
EXPRESS 80              
1 45986U 20053B   22226.87977900 -.00000152  00000+0  00000+0 0  9990
2 45986   0.0236 243.4700 0000904  72.1316  44.3911  1.00267300  7578
BSAT-4B                 
1 46112U 20056A   22230.63224087 -.00000357  00000+0  00000+0 0  9992
2 46112   0.0369 147.1643 0003852   1.9551 155.2804  1.00270661  7363
MEV-2                   
1 46113U 20056B   22230.35380266 -.00000018  00000+0  00000+0 0  9998
2 46113   0.0451 275.9042 0000627 266.7739 270.3889  1.00274176 66514
GALAXY 30 (G-30)        
1 46114U 20056C   22231.18926017  .00000030  00000+0  00000+0 0  9994
2 46114   0.0131 128.8130 0002032  29.6999 112.1268  1.00272740  7389
GAOFEN 13               
1 46610U 20071A   22231.17410259 -.00000369  00000+0  00000+0 0  9993
2 46610   0.3412 262.5474 0003766 279.0918 326.3217  1.00275229  6881
TIANTONG-1 2            
1 46916U 20082A   22230.87063177 -.00000359  00000+0  00000+0 0  9992
2 46916   3.9802 295.0135 0002472 215.4321 255.0828  1.00271529  6630
LUCAS (JDRS-1)          
1 47202U 20089A   22230.86584709 -.00000241  00000+0  00000+0 0  9996
2 47202   0.0088 146.2762 0001515 319.0413 264.3153  1.00269040  6376
SXM-7                   
1 47240U 20096A   22231.19456010 -.00000028  00000+0  00000+0 0  9999
2 47240   0.0185 245.4229 0001420  88.6053 308.2096  1.00272170  6316
CMS-01                  
1 47256U 20099A   22230.85029932 -.00000173  00000+0  00000+0 0  9991
2 47256   0.0600 273.4530 0005542 347.9435  94.8873  1.00275884  6175
TURKSAT 5A              
1 47306U 21001A   22230.56993870  .00000147  00000+0  00000+0 0  9990
2 47306   0.0165 109.3526 0000220 139.3680 314.2702  1.00272887  5957
