[{"OBJECT_NAME":"GEO-KOMPSAT-2B","OBJECT_ID":"2020-013B","EPOCH":"2022-08-15T10:08:41.460576","MEAN_MOTION":1.00271708,"ECCENTRICITY":0.0001252,"INCLINATION":0.0383,"RA_OF_ASC_NODE":271.0407,"ARG_OF_PERICENTER":312.3975,"MEAN_ANOMALY":20.7722,"EPHEMERIS_TYPE":0,"CLASSIFICATION_TYPE":"U","NORAD_CAT_ID":45246,"ELEMENT_SET_NO":999,"REV_AT_EPOCH":922,"BSTAR":0,"MEAN_MOTION_DOT":-3.6e-6,"MEAN_MOTION_DDOT":0},{"OBJECT_NAME":"BEIDOU-3 G2","OBJECT_ID":"2020-017A","EPOCH":"2022-08-18T20:55:51.639744","MEAN_MOTION":1.00272137,"ECCENTRICITY":0.0004721,"INCLINATION":2.0308,"RA_OF_ASC_NODE":355.1759,"ARG_OF_PERICENTER":140.0384,"MEAN_ANOMALY":225.9841,"EPHEMERIS_TYPE":0,"CLASSIFICATION_TYPE":"U","NORAD_CAT_ID":45344,"ELEMENT_SET_NO":999,"REV_AT_EPOCH":924,"BSTAR":0,"MEAN_MOTION_DOT":-1.46e-6,"MEAN_MOTION_DDOT":0},{"OBJECT_NAME":"AEHF-6 (USA 298)","OBJECT_ID":"2020-022B","EPOCH":"2022-08-18T22:55:55.532640","MEAN_MOTION":1.00271896,"ECCENTRICITY":0.0044115,"INCLINATION":5.8011,"RA_OF_ASC_NODE":302.3486,"ARG_OF_PERICENTER":359.2304,"MEAN_ANOMALY":147.4484,"EPHEMERIS_TYPE":0,"CLASSIFICATION_TYPE":"U","NORAD_CAT_ID":45465,"ELEMENT_SET_NO":999,"REV_AT_EPOCH":896,"BSTAR":0,"MEAN_MOTION_DOT":-2.99e-6,"MEAN_MOTION_DDOT":0},{"OBJECT_NAME":"BEIDOU-3 G3","OBJECT_ID":"2020-040A","EPOCH":"2022-08-18T21:04:39.027936","MEAN_MOTION":1.00269146,"ECCENTRICITY":0.0007355,"INCLINATION":1.3031,"RA_OF_ASC_NODE":305.0522,"ARG_OF_PERICENTER":329.1248,"MEAN_ANOMALY":119.7348,"EPHEMERIS_TYPE":0,"CLASSIFICATION_TYPE":"U","NORAD_CAT_ID":45807,"ELEMENT_SET_NO":999,"REV_AT_EPOCH":805,"BSTAR":0,"MEAN_MOTION_DOT":-3.59e-6,"MEAN_MOTION_DDOT":0},{"OBJECT_NAME":"APSTAR 6D","OBJECT_ID":"2020-045A","EPOCH":"2022-08-18T21:29:33.796320","MEAN_MOTION":1.00274431,"ECCENTRICITY":0.0002397,"INCLINATION":0.0164,"RA_OF_ASC_NODE":111.8411,"ARG_OF_PERICENTER":21.7257,"MEAN_ANOMALY":290.0365,"EPHEMERIS_TYPE":0,"CLASSIFICATION_TYPE":"U","NORAD_CAT_ID":45863,"ELEMENT_SET_NO":999,"REV_AT_EPOCH":783,"BSTAR":0,"MEAN_MOTION_DOT":-3.24e-6,"MEAN_MOTION_DDOT":0},{"OBJECT_NAME":"KOREASAT 116","OBJECT_ID":"2020-048A","EPOCH":"2022-08-18T21:06:16.971840","MEAN_MOTION":1.0027285,"ECCENTRICITY":0.0001042,"INCLINATION":0.0165,"RA_OF_ASC_NODE":97.6664,"ARG_OF_PERICENTER":83.2692,"MEAN_ANOMALY":219.0318,"EPHEMERIS_TYPE":0,"CLASSIFICATION_TYPE":"U","NORAD_CAT_ID":45920,"ELEMENT_SET_NO":999,"REV_AT_EPOCH":761,"BSTAR":0,"MEAN_MOTION_DOT":-3.69e-6,"MEAN_MOTION_DDOT":0},{"OBJECT_NAME":"EXPRESS 103","OBJECT_ID":"2020-053A","EPOCH":"2022-08-18T07:14:08.081952","MEAN_MOTION":1.00271702,"ECCENTRICITY":9.32e-5,"INCLINATION":0.0443,"RA_OF_ASC_NODE":279.4258,"ARG_OF_PERICENTER":347.2385,"MEAN_ANOMALY":265.0017,"EPHEMERIS_TYPE":0,"CLASSIFICATION_TYPE":"U","NORAD_CAT_ID":45985,"ELEMENT_SET_NO":999,"REV_AT_EPOCH":762,"BSTAR":0,"MEAN_MOTION_DOT":-2.89e-6,"MEAN_MOTION_DDOT":0},{"OBJECT_NAME":"EXPRESS 80","OBJECT_ID":"2020-053B","EPOCH":"2022-08-14T21:06:52.905600","MEAN_MOTION":1.002673,"ECCENTRICITY":9.04e-5,"INCLINATION":0.0236,"RA_OF_ASC_NODE":243.47,"ARG_OF_PERICENTER":72.1316,"MEAN_ANOMALY":44.3911,"EPHEMERIS_TYPE":0,"CLASSIFICATION_TYPE":"U","NORAD_CAT_ID":45986,"ELEMENT_SET_NO":999,"REV_AT_EPOCH":757,"BSTAR":0,"MEAN_MOTION_DOT":-1.52e-6,"MEAN_MOTION_DDOT":0},{"OBJECT_NAME":"BSAT-4B","OBJECT_ID":"2020-056A","EPOCH":"2022-08-18T15:10:25.611168","MEAN_MOTION":1.00270661,"ECCENTRICITY":0.0003852,"INCLINATION":0.0369,"RA_OF_ASC_NODE":147.1643,"ARG_OF_PERICENTER":1.9551,"MEAN_ANOMALY":155.2804,"EPHEMERIS_TYPE":0,"CLASSIFICATION_TYPE":"U","NORAD_CAT_ID":46112,"ELEMENT_SET_NO":999,"REV_AT_EPOCH":736,"BSTAR":0,"MEAN_MOTION_DOT":-3.57e-6,"MEAN_MOTION_DDOT":0},{"OBJECT_NAME":"MEV-2","OBJECT_ID":"2020-056B","EPOCH":"2022-08-18T08:29:28.549824","MEAN_MOTION":1.00274176,"ECCENTRICITY":6.27e-5,"INCLINATION":0.0451,"RA_OF_ASC_NODE":275.9042,"ARG_OF_PERICENTER":266.7739,"MEAN_ANOMALY":270.3889,"EPHEMERIS_TYPE":0,"CLASSIFICATION_TYPE":"U","NORAD_CAT_ID":46113,"ELEMENT_SET_NO":999,"REV_AT_EPOCH":6651,"BSTAR":0,"MEAN_MOTION_DOT":-1.8e-7,"MEAN_MOTION_DDOT":0},{"OBJECT_NAME":"GALAXY 30 (G-30)","OBJECT_ID":"2020-056C","EPOCH":"2022-08-19T04:32:32.078688","MEAN_MOTION":1.0027274,"ECCENTRICITY":0.0002032,"INCLINATION":0.0131,"RA_OF_ASC_NODE":128.813,"ARG_OF_PERICENTER":29.6999,"MEAN_ANOMALY":112.1268,"EPHEMERIS_TYPE":0,"CLASSIFICATION_TYPE":"U","NORAD_CAT_ID":46114,"ELEMENT_SET_NO":999,"REV_AT_EPOCH":738,"BSTAR":0,"MEAN_MOTION_DOT":3.0e-7,"MEAN_MOTION_DDOT":0},{"OBJECT_NAME":"GAOFEN 13","OBJECT_ID":"2020-071A","EPOCH":"2022-08-19T04:10:42.463776","MEAN_MOTION":1.00275229,"ECCENTRICITY":0.0003766,"INCLINATION":0.3412,"RA_OF_ASC_NODE":262.5474,"ARG_OF_PERICENTER":279.0918,"MEAN_ANOMALY":326.3217,"EPHEMERIS_TYPE":0,"CLASSIFICATION_TYPE":"U","NORAD_CAT_ID":46610,"ELEMENT_SET_NO":999,"REV_AT_EPOCH":688,"BSTAR":0,"MEAN_MOTION_DOT":-3.69e-6,"MEAN_MOTION_DDOT":0},{"OBJECT_NAME":"TIANTONG-1 2","OBJECT_ID":"2020-082A","EPOCH":"2022-08-18T20:53:42.584928","MEAN_MOTION":1.00271529,"ECCENTRICITY":0.0002472,"INCLINATION":3.9802,"RA_OF_ASC_NODE":295.0135,"ARG_OF_PERICENTER":215.4321,"MEAN_ANOMALY":255.0828,"EPHEMERIS_TYPE":0,"CLASSIFICATION_TYPE":"U","NORAD_CAT_ID":46916,"ELEMENT_SET_NO":999,"REV_AT_EPOCH":663,"BSTAR":0,"MEAN_MOTION_DOT":-3.59e-6,"MEAN_MOTION_DDOT":0},{"OBJECT_NAME":"LUCAS (JDRS-1)","OBJECT_ID":"2020-089A","EPOCH":"2022-08-18T20:46:49.188576","MEAN_MOTION":1.0026904,"ECCENTRICITY":0.0001515,"INCLINATION":0.0088,"RA_OF_ASC_NODE":146.2762,"ARG_OF_PERICENTER":319.0413,"MEAN_ANOMALY":264.3153,"EPHEMERIS_TYPE":0,"CLASSIFICATION_TYPE":"U","NORAD_CAT_ID":47202,"ELEMENT_SET_NO":999,"REV_AT_EPOCH":637,"BSTAR":0,"MEAN_MOTION_DOT":-2.41e-6,"MEAN_MOTION_DDOT":0},{"OBJECT_NAME":"SXM-7","OBJECT_ID":"2020-096A","EPOCH":"2022-08-19T04:40:09.992640","MEAN_MOTION":1.0027217,"ECCENTRICITY":0.000142,"INCLINATION":0.0185,"RA_OF_ASC_NODE":245.4229,"ARG_OF_PERICENTER":88.6053,"MEAN_ANOMALY":308.2096,"EPHEMERIS_TYPE":0,"CLASSIFICATION_TYPE":"U","NORAD_CAT_ID":47240,"ELEMENT_SET_NO":999,"REV_AT_EPOCH":631,"BSTAR":0,"MEAN_MOTION_DOT":-2.8e-7,"MEAN_MOTION_DDOT":0},{"OBJECT_NAME":"CMS-01","OBJECT_ID":"2020-099A","EPOCH":"2022-08-18T20:24:25.861248","MEAN_MOTION":1.00275884,"ECCENTRICITY":0.0005542,"INCLINATION":0.06,"RA_OF_ASC_NODE":273.453,"ARG_OF_PERICENTER":347.9435,"MEAN_ANOMALY":94.8873,"EPHEMERIS_TYPE":0,"CLASSIFICATION_TYPE":"U","NORAD_CAT_ID":47256,"ELEMENT_SET_NO":999,"REV_AT_EPOCH":617,"BSTAR":0,"MEAN_MOTION_DOT":-1.73e-6,"MEAN_MOTION_DDOT":0},{"OBJECT_NAME":"TURKSAT 5A","OBJECT_ID":"2021-001A","EPOCH":"2022-08-18T13:40:42.703680","MEAN_MOTION":1.00272887,"ECCENTRICITY":2.2e-5,"INCLINATION":0.0165,"RA_OF_ASC_NODE":109.3526,"ARG_OF_PERICENTER":139.368,"MEAN_ANOMALY":314.2702,"EPHEMERIS_TYPE":0,"CLASSIFICATION_TYPE":"U","NORAD_CAT_ID":47306,"ELEMENT_SET_NO":999,"REV_AT_EPOCH":595,"BSTAR":0,"MEAN_MOTION_DOT":1.47e-6,"MEAN_MOTION_DDOT":0}]